1 45046U 20006C   22365.47432559  .00054548  00000-0  20120-2 0  9997
2 45046  52.9885  81.5056 0001747 218.9456 141.1416 15.27280181161378
1 45046U 20006C   22365.53976411  .00055273  00000-0  20379-2 0  9996
2 45046  52.9886  81.2020 0001730 219.7205 140.3666 15.27288031161381
1 45046U 20006C   23001.45587018  .00052483  00000-0  19304-2 0  9992
2 45046  52.9886  76.9487 0001517 225.1460 134.9414 15.27390492161527
1 45046U 20006C   23001.91390056  .00052080  00000-0  19130-2 0  9997
2 45046  52.9887  74.8223 0001392 228.4920 131.5958 15.27438432161591
1 45046U 20006C   23002.37191561  .00045635  00000-0  16767-2 0  9999
2 45046  52.9891  72.6955 0001310 231.6886 128.3994 15.27489787161662
1 45046U 20006C   23002.89534473  .00044273  00000-0  16249-2 0  9991
2 45046  52.9890  70.2651 0001184 234.0050 126.0837 15.27538996161744
1 45046U 20006C   23003.15705271  .00045929  00000-0  16835-2 0  9997
2 45046  52.9890  69.0498 0001156 237.7965 122.2920 15.27564927161781
1 45046U 20006C   23004.46552290  .00074758  00000-0  27092-2 0  9992
2 45046  52.9877  62.9710 0000942 242.5456 117.5446 15.27715446161982
1 45046U 20006C   23004.85803431  .00062658  00000-0  22723-2 0  9993
2 45046  52.9874  61.1480 0000845 243.8627 116.2283 15.27775868162047
1 45046U 20006C   23005.18511686  .00059030  00000-0  21397-2 0  9994
2 45046  52.9870  59.6284 0000803 247.8178 112.2734 15.27819003162098
1 45046U 20006C   23005.31594656  .00053394  00000-0  19370-2 0  9992
2 45046  52.9870  59.0202 0000797 245.1115 114.9800 15.27837406162119
1 45046U 20006C   23006.42794127  .00066491  00000-0  23931-2 0  9990
2 45046  52.9863  53.8523 0000700 250.8504 109.2418 15.27997247162288
1 45046U 20006C   23007.14740670  .00063463  00000-0  22791-2 0  9993
2 45046  52.9859  50.5084 0000560 259.2606 100.8328 15.28090898162395
1 45046U 20006C   23007.80142582  .00070630  00000-0  25256-2 0  9997
2 45046  52.9856  47.4674 0000465 254.0319 106.0628 15.28181934162494
1 45046U 20006C   23008.39001010  .00064775  00000-0  23134-2 0  9998
2 45046  52.9853  44.7301 0000413 258.3355 101.7597 15.28262899162585
1 45046U 20006C   23008.78238216  .00068657  00000-0  24458-2 0  9994
2 45046  52.9852  42.9056 0000344 266.7409  93.3549 15.28318847162642
1 45046U 20006C   23009.37091149  .00071913  00000-0  25529-2 0  9991
2 45046  52.9853  40.1680 0000281 267.1251  92.9714 15.28410770162733
1 45046U 20006C   23010.35171996  .00073947  00000-0  26124-2 0  9991
2 45046  52.9849  35.6051 0000194 288.1754  71.9222 15.28556382162880
1 45046U 20006C   23011.33242739  .00089357  00000-0  31312-2 0  9991
2 45046  52.9857  31.0423 0000072   4.2791 355.8207 15.28727642163039
1 45046U 20006C   23012.24765194  .00095074  00000-0  33109-2 0  9996
2 45046  52.9863  26.7830 0000202  73.8686 286.2334 15.28897549163176
1 45046U 20006C   23013.29349515  .00099832  00000-0  34519-2 0  9999
2 45046  52.9869  21.9145 0000423  86.3503 273.7543 15.29103428163338
1 45046U 20006C   23015.38471532  .00138277  00000-0  46796-2 0  9993
2 45046  52.9878  12.1748 0000903  99.9399 260.1701 15.29601689163658
1 45046U 20006C   23015.71140011  .00122360  00000-0  41392-2 0  9998
2 45046  52.9880  10.6532 0000981 100.9651 259.1458 15.29696211163703
1 45046U 20006C   23016.23405508  .00155041  00000-0  51927-2 0  9998
2 45046  52.9882   8.2166 0001111 107.1368 252.9752 15.29856680163785
1 45046U 20006C   23016.69133915  .00132942  00000-0  44528-2 0  9992
2 45046  52.9880   6.0854 0001195 107.4793 252.6336 15.29964130163853
1 45046U 20006C   23017.34454761  .00109570  00000-0  36675-2 0  9995
2 45046  52.9877   3.0386 0001409 113.5296 246.5851 15.30106868163953
1 45046U 20006C   23017.67112685  .00123212  00000-0  41046-2 0  9994
2 45046  52.9876   1.5158 0001525 116.6018 243.5137 15.30189070164004
1 45046U 20006C   23018.45484532  .00155023  00000-0  51047-2 0  9991
2 45046  52.9874 357.8602 0001762 122.9113 237.2056 15.30406652164123
1 45046U 20006C   23018.65075965  .00146021  00000-0  48088-2 0  9998
2 45046  52.9874 356.9466 0001763 121.8360 238.2810 15.30446976164159
1 45046U 20006C   23019.30375874  .00113228  00000-0  37305-2 0  9996
2 45046  52.9869 353.8991 0001909 126.6837 233.4337 15.30598618164259
1 45046U 20006C   23025.24270176  .00111218  00000-0  34935-2 0  9998
2 45046  52.9860 326.1531 0003594 161.2001 198.9131 15.32140464165165
1 45046U 20006C   23026.09065273  .00126537  00000-0  39411-2 0  9996
2 45046  52.9864 322.1857 0003782 165.5962 194.5145 15.32333109165299
1 45046U 20006C   23027.06892405  .00110716  00000-0  34340-2 0  9997
2 45046  52.9860 317.6080 0003754 168.5490 191.5595 15.32547037165440
1 45046U 20006C   23028.17747339  .00104585  00000-0  32238-2 0  9996
2 45046  52.9862 312.4176 0003921 172.8431 187.2625 15.32776232165953
1 45046U 20006C   23029.09027782  .00083813  00000-0  25798-2 0  9994
2 45046  52.9862 308.1436 0003988 174.5321 185.5723 15.32938087165750
1 45046U 20006C   23030.06817900  .00075522  00000-0  23166-2 0  9997
2 45046  52.9859 303.5631 0004113 177.9178 182.1840 15.33097695165902
1 45046U 20006C   23030.91561486  .00068292  00000-0  20896-2 0  9999
2 45046  52.9855 299.5931 0004135 180.9154 179.1839 15.33224313166035
1 45046U 20006C   23031.11116719  .00070822  00000-0  21639-2 0  9995
2 45046  52.9851 298.6762 0004224 181.9384 178.1600 15.33252726166065
1 45046U 20006C   23031.76298021  .00084480  00000-0  25655-2 0  9990
2 45046  52.9847 295.6231 0004269 183.9039 176.1929 15.33361609166160
